{"type": "FeatureCollection", "features": [ {"type": "Feature", "properties": {"norad_id": 30960, "name": "FENGYUN 1C DEB", "group": "fengyun-1c-debris", "lat": 32.816410807612215, "lon": 110.4945384544024, "alt_km": 666.2830750257535, "timestamp": "2025-12-25T03:55:56.637738+00:00", "meta": {"OBJECT_NAME": "FENGYUN 1C DEB", "OBJECT_ID": "1999-025BBA", "EPOCH": "2025-12-24T01:35:23.867808", "MEAN_MOTION": 14.67096676, "ECCENTRICITY": 0.01959768, "INCLINATION": 99.0009, "RA_OF_ASC_NODE": 115.1562, "ARG_OF_PERICENTER": 127.0459, "MEAN_ANOMALY": 234.8846, "EPHEMERIS_TYPE": 0, "CLASSIFICATION_TYPE": "U", "NORAD_CAT_ID": 30960, "ELEMENT_SET_NO": 999, "REV_AT_EPOCH": 98864, "BSTAR": 0.0011626107, "MEAN_MOTION_DOT": 8.66e-05, "MEAN_MOTION_DDOT": 0}, "tle": {"line1": "1 30960U 99025BBA 25358.06624847  .00008660  00000+0  11626-2 0  9990", "line2": "2 30960  99.0009 115.1562 0195976 127.0459 234.8846 14.67096676988645"}}, "geometry": {"type": "Point", "coordinates": [110.4945384544024, 32.816410807612215]}}, {"type": "Feature", "properties": {"norad_id": 30967, "name": "FENGYUN 1C DEB", "group": "fengyun-1c-debris", "lat": -4.047008388670629, "lon": 125.40285318966856, "alt_km": 641.4724424179385, "timestamp": "2025-12-25T03:55:56.637748+00:00", "meta": {"OBJECT_NAME": "FENGYUN 1C DEB", "OBJECT_ID": "1999-025BBH", "EPOCH": "2025-12-22T14:06:46.583424", "MEAN_MOTION": 14.57201105, "ECCENTRICITY": 0.0094883, "INCLINATION": 98.7655, "RA_OF_ASC_NODE": 303.3185, "ARG_OF_PERICENTER": 209.1974, "MEAN_ANOMALY": 150.39, "EPHEMERIS_TYPE": 0, "CLASSIFICATION_TYPE": "U", "NORAD_CAT_ID": 30967, "ELEMENT_SET_NO": 999, "REV_AT_EPOCH": 99157, "BSTAR": 0.00061481123, "MEAN_MOTION_DOT": 2.897e-05, "MEAN_MOTION_DDOT": 0}, "tle": {"line1": "1 30967U 99025BBH 25356.58803916  .00002897  00000+0  61481-3 0  9999", "line2": "2 30967  98.7655 303.3185 0094883 209.1974 150.3900 14.57201105991579"}}, "geometry": {"type": "Point", "coordinates": [125.40285318966856, -4.047008388670629]}}, {"type": "Feature", "properties": {"norad_id": 30971, "name": "FENGYUN 1C DEB", "group": "fengyun-1c-debris", "lat": -38.95174909606558, "lon": 52.178972211715916, "alt_km": 774.382449107783, "timestamp": "2025-12-25T03:55:56.637758+00:00", "meta": {"OBJECT_NAME": "FENGYUN 1C DEB", "OBJECT_ID": "1999-025BBM", "EPOCH": "2025-12-22T21:26:36.171744", "MEAN_MOTION": 14.71785418, "ECCENTRICITY": 0.0164056, "INCLINATION": 99.208, "RA_OF_ASC_NODE": 42.0759, "ARG_OF_PERICENTER": 159.8739, "MEAN_ANOMALY": 17.7567, "EPHEMERIS_TYPE": 0, "CLASSIFICATION_TYPE": "U", "NORAD_CAT_ID": 30971, "ELEMENT_SET_NO": 999, "REV_AT_EPOCH": 99866, "BSTAR": 0.00060198, "MEAN_MOTION_DOT": 4.575e-05, "MEAN_MOTION_DDOT": 0}, "tle": {"line1": "1 30971U 99025BBM 25356.89347421  .00004575  00000+0  60198-3 0  9991", "line2": "2 30971  99.2080  42.0759 0164056 159.8739  17.7567 14.71785418998668"}}, "geometry": {"type": "Point", "coordinates": [52.178972211715916, -38.95174909606558]}}, {"type": "Feature", "properties": {"norad_id": 30979, "name": "FENGYUN 1C DEB", "group": "fengyun-1c-debris", "lat": -26.906760075053988, "lon": -98.70397104091563, "alt_km": 726.7402936075132, "timestamp": "2025-12-25T03:55:56.637768+00:00", "meta": {"OBJECT_NAME": "FENGYUN 1C DEB", "OBJECT_ID": "1999-025BBV", "EPOCH": "2025-12-24T04:25:50.139840", "MEAN_MOTION": 14.78964413, "ECCENTRICITY": 0.01902725, "INCLINATION": 97.8304, "RA_OF_ASC_NODE": 256.3375, "ARG_OF_PERICENTER": 203.7725, "MEAN_ANOMALY": 316.9297, "EPHEMERIS_TYPE": 0, "CLASSIFICATION_TYPE": "U", "NORAD_CAT_ID": 30979, "ELEMENT_SET_NO": 999, "REV_AT_EPOCH": 99314, "BSTAR": 0.00092219156, "MEAN_MOTION_DOT": 9.195e-05, "MEAN_MOTION_DDOT": 0}, "tle": {"line1": "1 30979U 99025BBV 25358.18460810  .00009195  00000+0  92219-3 0  9993", "line2": "2 30979  97.8304 256.3375 0190272 203.7725 316.9297 14.78964413993149"}}, "geometry": {"type": "Point", "coordinates": [-98.70397104091563, -26.906760075053988]}}, {"type": "Feature", "properties": {"norad_id": 30982, "name": "FENGYUN 1C DEB", "group": "fengyun-1c-debris", "lat": 22.915481774501078, "lon": -14.383917021452206, "alt_km": 761.7148361182099, "timestamp": "2025-12-25T03:55:56.637778+00:00", "meta": {"OBJECT_NAME": "FENGYUN 1C DEB", "OBJECT_ID": "1999-025BBY", "EPOCH": "2025-12-23T05:32:45.239424", "MEAN_MOTION": 14.50982997, "ECCENTRICITY": 0.01799715, "INCLINATION": 98.2177, "RA_OF_ASC_NODE": 347.2294, "ARG_OF_PERICENTER": 280.1349, "MEAN_ANOMALY": 91.1992, "EPHEMERIS_TYPE": 0, "CLASSIFICATION_TYPE": "U", "NORAD_CAT_ID": 30982, "ELEMENT_SET_NO": 999, "REV_AT_EPOCH": 71206, "BSTAR": 0.00028310566, "MEAN_MOTION_DOT": 1.325e-05, "MEAN_MOTION_DDOT": 0}, "tle": {"line1": "1 30982U 99025BBY 25357.23107916  .00001325  00000+0  28311-3 0  9996", "line2": "2 30982  98.2177 347.2294 0179971 280.1349  91.1992 14.50982997712061"}}, "geometry": {"type": "Point", "coordinates": [-14.383917021452206, 22.915481774501078]}}, {"type": "Feature", "properties": {"norad_id": 30984, "name": "FENGYUN 1C DEB", "group": "fengyun-1c-debris", "lat": -54.29955759357397, "lon": -156.39219488683312, "alt_km": 737.3795850035131, "timestamp": "2025-12-25T03:55:56.637789+00:00", "meta": {"OBJECT_NAME": "FENGYUN 1C DEB", "OBJECT_ID": "1999-025BCA", "EPOCH": "2025-12-24T13:35:51.251424", "MEAN_MOTION": 14.50504429, "ECCENTRICITY": 0.0126595, "INCLINATION": 98.2614, "RA_OF_ASC_NODE": 34.6867, "ARG_OF_PERICENTER": 331.6968, "MEAN_ANOMALY": 27.7387, "EPHEMERIS_TYPE": 0, "CLASSIFICATION_TYPE": "U", "NORAD_CAT_ID": 30984, "ELEMENT_SET_NO": 999, "REV_AT_EPOCH": 95335, "BSTAR": 0.00077998, "MEAN_MOTION_DOT": 3.335e-05, "MEAN_MOTION_DDOT": 0}, "tle": {"line1": "1 30984U 99025BCA 25358.56656541  .00003335  00000+0  77998-3 0  9996", "line2": "2 30984  98.2614  34.6867 0126595 331.6968  27.7387 14.50504429953357"}}, "geometry": {"type": "Point", "coordinates": [-156.39219488683312, -54.29955759357397]}}, {"type": "Feature", "properties": {"norad_id": 30988, "name": "FENGYUN 1C DEB", "group": "fengyun-1c-debris", "lat": 15.269205430079177, "lon": -54.03953554594087, "alt_km": 467.93619248766845, "timestamp": "2025-12-25T03:55:56.637799+00:00", "meta": {"OBJECT_NAME": "FENGYUN 1C DEB", "OBJECT_ID": "1999-025BCE", "EPOCH": "2025-12-21T02:23:01.428576", "MEAN_MOTION": 15.27139911, "ECCENTRICITY": 0.01097396, "INCLINATION": 98.542, "RA_OF_ASC_NODE": 303.6611, "ARG_OF_PERICENTER": 311.1413, "MEAN_ANOMALY": 48.0391, "EPHEMERIS_TYPE": 0, "CLASSIFICATION_TYPE": "U", "NORAD_CAT_ID": 30988, "ELEMENT_SET_NO": 999, "REV_AT_EPOCH": 99691, "BSTAR": 0.0018593315, "MEAN_MOTION_DOT": 0.00059401, "MEAN_MOTION_DDOT": 0}, "tle": {"line1": "1 30988U 99025BCE 25355.09932209  .00059401  00000+0  18593-2 0  9993", "line2": "2 30988  98.5420 303.6611 0109739 311.1413  48.0391 15.27139911996919"}}, "geometry": {"type": "Point", "coordinates": [-54.03953554594087, 15.269205430079177]}}, {"type": "Feature", "properties": {"norad_id": 30989, "name": "FENGYUN 1C DEB", "group": "fengyun-1c-debris", "lat": 31.76857059603553, "lon": -101.44620292533457, "alt_km": 835.2769920487772, "timestamp": "2025-12-25T03:55:56.637809+00:00", "meta": {"OBJECT_NAME": "FENGYUN 1C DEB", "OBJECT_ID": "1999-025BCF", "EPOCH": "2025-12-24T03:28:11.682624", "MEAN_MOTION": 14.13992864, "ECCENTRICITY": 0.00898899, "INCLINATION": 99.0518, "RA_OF_ASC_NODE": 71.8564, "ARG_OF_PERICENTER": 67.6249, "MEAN_ANOMALY": 293.4418, "EPHEMERIS_TYPE": 0, "CLASSIFICATION_TYPE": "U", "NORAD_CAT_ID": 30989, "ELEMENT_SET_NO": 999, "REV_AT_EPOCH": 96149, "BSTAR": 0.0014579966, "MEAN_MOTION_DOT": 2.834e-05, "MEAN_MOTION_DDOT": 0}, "tle": {"line1": "1 30989U 99025BCF 25358.14457966  .00002834  00000+0  14580-2 0  9995", "line2": "2 30989  99.0518  71.8564 0089889  67.6249 293.4418 14.13992864961497"}}, "geometry": {"type": "Point", "coordinates": [-101.44620292533457, 31.76857059603553]}}, {"type": "Feature", "properties": {"norad_id": 30993, "name": "FENGYUN 1C DEB", "group": "fengyun-1c-debris", "lat": -35.0861342124152, "lon": 98.19778419929543, "alt_km": 768.0240493486517, "timestamp": "2025-12-25T03:55:56.637819+00:00", "meta": {"OBJECT_NAME": "FENGYUN 1C DEB", "OBJECT_ID": "1999-025BCK", "EPOCH": "2025-12-24T17:06:43.121376", "MEAN_MOTION": 14.35536378, "ECCENTRICITY": 0.0016261, "INCLINATION": 98.8459, "RA_OF_ASC_NODE": 91.4554, "ARG_OF_PERICENTER": 335.6534, "MEAN_ANOMALY": 180.2644, "EPHEMERIS_TYPE": 0, "CLASSIFICATION_TYPE": "U", "NORAD_CAT_ID": 30993, "ELEMENT_SET_NO": 999, "REV_AT_EPOCH": 97091, "BSTAR": 0.001803, "MEAN_MOTION_DOT": 5.155e-05, "MEAN_MOTION_DDOT": 0}, "tle": {"line1": "1 30993U 99025BCK 25358.71299909  .00005155  00000+0  18030-2 0  9997", "line2": "2 30993  98.8459  91.4554 0016261 335.6534 180.2644 14.35536378970918"}}, "geometry": {"type": "Point", "coordinates": [98.19778419929543, -35.0861342124152]}}, {"type": "Feature", "properties": {"norad_id": 30994, "name": "FENGYUN 1C DEB", "group": "fengyun-1c-debris", "lat": 22.653060516472063, "lon": 3.5693350146585687, "alt_km": 858.888076037987, "timestamp": "2025-12-25T03:55:56.637829+00:00", "meta": {"OBJECT_NAME": "FENGYUN 1C DEB", "OBJECT_ID": "1999-025BCL", "EPOCH": "2025-12-24T15:55:02.271072", "MEAN_MOTION": 14.11777442, "ECCENTRICITY": 0.0018397, "INCLINATION": 98.6996, "RA_OF_ASC_NODE": 6.7476, "ARG_OF_PERICENTER": 141.4604, "MEAN_ANOMALY": 218.7885, "EPHEMERIS_TYPE": 0, "CLASSIFICATION_TYPE": "U", "NORAD_CAT_ID": 30994, "ELEMENT_SET_NO": 999, "REV_AT_EPOCH": 96753, "BSTAR": 0.00015647, "MEAN_MOTION_DOT": 2.43e-06, "MEAN_MOTION_DDOT": 0}, "tle": {"line1": "1 30994U 99025BCL 25358.66322073  .00000243  00000+0  15647-3 0  9996", "line2": "2 30994  98.6996   6.7476 0018397 141.4604 218.7885 14.11777442967539"}}, "geometry": {"type": "Point", "coordinates": [3.5693350146585687, 22.653060516472063]}}]}